[{"OBJECT_NAME":"STARLINK-3154","OBJECT_ID":"2021-104K","EPOCH":"2026-03-09T17:38:14.440704","MEAN_MOTION":15.08837008,"ECCENTRICITY":0.00013653,"INCLINATION":53.2175,"RA_OF_ASC_NODE":218.5721,"ARG_OF_PERICENTER":84.3986,"MEAN_ANOMALY":275.7162,"EPHEMERIS_TYPE":0,"CLASSIFICATION_TYPE":"U","NORAD_CAT_ID":49417,"ELEMENT_SET_NO":999,"REV_AT_EPOCH":23877,"BSTAR":1.4843761e-5,"MEAN_MOTION_DOT":-5.2e-7,"MEAN_MOTION_DDOT":0},{"OBJECT_NAME":"FENGYUN 1C DEB","OBJECT_ID":"1999-025FBF","EPOCH":"2026-03-06T07:33:49.292640","MEAN_MOTION":15.04395515,"ECCENTRICITY":0.01189701,"INCLINATION":98.9505,"RA_OF_ASC_NODE":84.7158,"ARG_OF_PERICENTER":75.0888,"MEAN_ANOMALY":286.3472,"EPHEMERIS_TYPE":0,"CLASSIFICATION_TYPE":"U","NORAD_CAT_ID":47029,"ELEMENT_SET_NO":999,"REV_AT_EPOCH":4330,"BSTAR":0.0027080259,"MEAN_MOTION_DOT":0.00044409,"MEAN_MOTION_DDOT":0}]
